#aV2012 12 14  0  0  0.00000000     288 DD+AD WGS84 FIT  NGA
## 1718 432000.00000000   300.00000000 56275 0.0000000000000
+   31     1  2  3  4  5  6  7  8  9 10 11 12 13 14 15 16 17
+         18 19 20 21 22 23 24 25 26 28 29 30 31 32  0  0  0
+          0  0  0  0  0  0  0  0  0  0  0  0  0  0  0  0  0
+          0  0  0  0  0  0  0  0  0  0  0  0  0  0  0  0  0
+          0  0  0  0  0  0  0  0  0  0  0  0  0  0  0  0  0
++         2  2  2  2  2  2  2  2  2  2  2  2  2  2  2  2  2
++         2  2  2  2  2  2  2  2  2  2  2  2  2  2  2  0  0
++         0  0  0  0  0  0  0  0  0  0  0  0  0  0  0  0  0
++         0  0  0  0  0  0  0  0  0  0  0  0  0  0  0  0  0
++         0  0  0  0  0  0  0  0  0  0  0  0  0  0  0  0  0
%c cc cc ccc ccc cccc cccc cccc cccc ccccc ccccc ccccc ccccc
%c cc cc ccc ccc cccc cccc cccc cccc ccccc ccccc ccccc ccccc
%f  0.0000000  0.000000000  0.00000000000  0.000000000000000
%f  0.0000000  0.000000000  0.00000000000  0.000000000000000
%i    0    0    0    0      0      0      0      0         0
%i    0    0    0    0      0      0      0      0         0
/*      NGA, ST. LOUIS,MO.                                  
/*   EPHEMERIS COMPUTED FROM  1 DAYS OF DATA
/*   EPOCHA SMOOTHER  
/* CCCCCCCCCCCCCCCCCCCCCCCCCCCCCCCCCCCCCCCCCCCCCCCCCCCCCCCCC
*  2012 12 14  2 30  0.00000000                                                 
P  1 -21493.333007 -12136.120412   9867.373291    287.394969                    
V  1  -6964.259599 -10733.684475 -28239.425198      0.020452                    
P  2  12485.550164  21912.905984   9274.360357    411.566603                    
V  2 -10061.700820  -6083.420814  27905.636071      0.010198                    
P  3  -9371.940126 -13359.496813 -21479.758433    141.314202                    
V  3  24133.026168 -10213.920520  -4041.254461      0.050324                    
P  4  -1637.006729  18191.535894  18904.902173     74.502722                    
V  4 -18635.840390 -16423.648068  14277.422076      0.111698                    
P  5   5155.009017  21274.460857 -14972.301823   -372.638913                    
V  5  -7432.369438  17694.428539  22771.302573     -0.022900                    
P  6  -2371.519352 -15556.038702 -21277.297582    425.146352                    
V  6  26204.628971  -7854.945655   3138.055773     -0.129860                    
P  7 -17476.848256   1181.814829 -20009.762746    156.796108                    
V  7 -16750.586385 -19076.164158  13198.296073      0.044565                    
P  8  -9112.831125  11403.621838 -22034.741602      3.484296                    
V  8 -17794.009461 -21871.639436  -4509.324280      0.003339                    
P  9  19112.419702  18310.219382   1142.566036    206.457580                    
V  9    -48.150533   3014.474723 -32266.099565      0.026201                    
P 10  -8291.550939  24961.466191    967.258144    -62.104687                    
V 10  -3088.047558  -2584.122741  31630.554269     -0.015108                    
P 11 -23415.899451 -12835.906767    380.680050   -333.012020                    
V 11   1522.781618  -4678.884262 -29879.670723     -0.038059                    
P 12  13532.247911   5994.803557  22043.292953    106.750688                    
V 12  -8420.194593  26662.270966  -1892.001465      0.020375                    
P 13 -26199.892086   4644.491964   -947.663951    160.345413                    
V 13  -1321.916711  -1810.183075  32153.383372     -0.028419                    
P 14  16009.239955 -13944.494487  16066.035617    218.228248                    
V 14  20027.293041  -1993.413290 -22091.061880      0.005415                    
P 15  19918.259018   6739.724355 -16382.576697   -102.151123                    
V 15 -19406.232305   7573.477254 -20250.872919     -0.010387                    
P 16  -3562.767908 -21318.547988 -15217.427575   -250.779272                    
V 16   7790.187460 -17849.423945  23502.227767     -0.004406                    
P 17 -14539.122008  14860.497676  16580.217804     69.603077                    
V 17 -20708.680627   2517.701081 -20898.946460     -0.035291                    
P 18  15692.759001 -15102.698997 -14580.200171    229.286182                    
V 18  -2364.783190  19515.114287 -22533.457282      0.018601                    
P 19 -17434.865810  -9771.986477 -17764.873758   -330.715230                    
V 19  21759.569801  -4857.497720 -18366.954293     -0.033712                    
P 20 -15292.318502  -4073.358397  21159.747819     76.389098                    
V 20   6188.103170 -26689.842445   -584.757216      0.012568                    
P 21  15880.239471  -5236.399970 -20216.222239   -268.191829                    
V 21  18081.308032  19880.063207   8279.375960     -0.023485                    
P 22  10082.799784 -24151.569836  -3914.957888    153.354828                    
V 22   2357.251000   6141.033689 -30513.054277      0.008403                    
P 23 -24537.814841  -1741.502617  10556.589082    134.308758                    
V 23  12306.363370  -5254.901599  27518.963086     -0.038133                    
P 24  21080.848299  14782.416608   6559.381743      2.394531                    
V 24   3911.885376   7838.412622 -30230.352226     -0.006199                    
P 25  16042.851483  -7870.123959  19588.951317     56.337085                    
V 25  -5484.592357  24364.422214  14324.534124      0.022119                    
P 26   8096.326607  13609.590092 -22003.998327   -175.777603                    
V 26 -25978.781227   4379.181476  -6708.772454      0.135421                    
P 28 -12362.226063  22198.467561  -6774.738731    213.744145                    
V 28    831.985959  -9651.912545 -30768.647649      0.035310                    
P 29  26110.865139  -4671.683095    941.420268    387.192296                    
V 29   -567.240124   2888.148438  31843.482467      0.039514                    
P 30   1136.617930 -26148.550364  -4933.044196   -285.331077                    
V 30   3615.576643  -5268.476643  30954.981777      0.123941                    
P 31  -2231.301197 -19759.654651  17668.057778    292.129881                    
V 31  16105.520212  15211.921226  19508.021297      0.021018                    
P 32  -9978.634810 -14448.164766  20228.779861   -516.689425                    
V 32   9763.149525 -23275.967098 -11396.098035     -0.034527                    
EOF
